start=new Date('2022-05-24T00:00:00.000Z').valueOf();
sats=[{"SEMIMAJOR_AXIS":"6925.426","CENTER_NAME":"EARTH","LAUNCH_DATE":"2020-03-18","RA_OF_ASC_NODE":"248.3006","MEAN_ANOMALY":"290.6819","CLASSIFICATION_TYPE":"U","BSTAR":"0.00029508000000","EPOCH":"2022-05-23T18:12:22.673664","SITE":"AFETR","TIME_SYSTEM":"UTC","INCLINATION":"53.0561","APOAPSIS":"548.597","NORAD_CAT_ID":"45380","GP_ID":"204363368","TLE_LINE1":"1 45380U 20019W   22143.75859576  .00004113  00000-0  29508-3 0  9992","DECAY_DATE":null,"COUNTRY_CODE":"US","REV_AT_EPOCH":"12111","MEAN_MOTION_DDOT":"0.0000000000000","OBJECT_ID":"2020-019W","MEAN_ELEMENT_THEORY":"SGP4","EPHEMERIS_TYPE":"0","TLE_LINE2":"2 45380  53.0561 248.3006 0001886  69.4372 290.6819 15.06374877121118","FILE":"3460905","MEAN_MOTION_DOT":"0.00004113","ELEMENT_SET_NO":"999","PERIOD":"95.594","OBJECT_NAME":"STARLINK-1207","RCS_SIZE":"LARGE","ECCENTRICITY":"0.00018860","ARG_OF_PERICENTER":"69.4372","REF_FRAME":"TEME","PERIAPSIS":"545.984","OBJECT_TYPE":"PAYLOAD","MEAN_MOTION":"15.06374877"},{"ECCENTRICITY":"0.00013620","PERIAPSIS":"546.281","REF_FRAME":"TEME","ARG_OF_PERICENTER":"85.0179","OBJECT_TYPE":"PAYLOAD","MEAN_MOTION":"15.06396367","MEAN_MOTION_DDOT":"0.0000000000000","OBJECT_ID":"2020-019X","REV_AT_EPOCH":"12110","COUNTRY_CODE":"US","DECAY_DATE":null,"ELEMENT_SET_NO":"999","MEAN_MOTION_DOT":"0.00001044","TLE_LINE2":"2 45381  53.0557 248.5541 0001362  85.0179 275.0966 15.06396367121105","FILE":"3460905","MEAN_ELEMENT_THEORY":"SGP4","EPHEMERIS_TYPE":"0","PERIOD":"95.592","OBJECT_NAME":"STARLINK-1258","RCS_SIZE":"LARGE","SITE":"AFETR","EPOCH":"2022-05-23T16:52:46.280352","APOAPSIS":"548.168","INCLINATION":"53.0557","TIME_SYSTEM":"UTC","NORAD_CAT_ID":"45381","TLE_LINE1":"1 45381U 20019X   22143.70331343  .00001044  00000-0  88988-4 0  9993","GP_ID":"204364120","SEMIMAJOR_AXIS":"6925.360","CLASSIFICATION_TYPE":"U","MEAN_ANOMALY":"275.0966","LAUNCH_DATE":"2020-03-18","RA_OF_ASC_NODE":"248.5541","CENTER_NAME":"EARTH","BSTAR":"0.00008898800000"},{"SEMIMAJOR_AXIS":"6925.376","LAUNCH_DATE":"2020-03-18","RA_OF_ASC_NODE":"248.9630","CENTER_NAME":"EARTH","CLASSIFICATION_TYPE":"U","MEAN_ANOMALY":"283.4973","BSTAR":"0.00000574240000","SITE":"AFETR","EPOCH":"2022-05-23T14:45:23.274144","INCLINATION":"53.0546","TIME_SYSTEM":"UTC","APOAPSIS":"548.354","NORAD_CAT_ID":"45382","TLE_LINE1":"1 45382U 20019Y   22143.61485271 -.00000196  00000-0  57424-5 0  9994","GP_ID":"204362870","REV_AT_EPOCH":"12091","DECAY_DATE":null,"COUNTRY_CODE":"US","OBJECT_ID":"2020-019Y","MEAN_MOTION_DDOT":"0.0000000000000","TLE_LINE2":"2 45382  53.0546 248.9630 0001608  76.6195 283.4973 15.06391145120912","MEAN_MOTION_DOT":"-0.00000196","FILE":"3460905","MEAN_ELEMENT_THEORY":"SGP4","EPHEMERIS_TYPE":"0","ELEMENT_SET_NO":"999","PERIOD":"95.593","OBJECT_NAME":"STARLINK-1264","RCS_SIZE":"LARGE","ECCENTRICITY":"0.00016080","REF_FRAME":"TEME","ARG_OF_PERICENTER":"76.6195","PERIAPSIS":"546.127","OBJECT_TYPE":"PAYLOAD","MEAN_MOTION":"15.06391145"},{"NORAD_CAT_ID":"45383","GP_ID":"204363120","TLE_LINE1":"1 45383U 20019Z   22143.76228284  .00000601  00000-0  59243-4 0  9990","EPOCH":"2022-05-23T18:17:41.237376","SITE":"AFETR","APOAPSIS":"548.264","TIME_SYSTEM":"UTC","INCLINATION":"53.0549","MEAN_ANOMALY":"275.6080","CLASSIFICATION_TYPE":"U","CENTER_NAME":"EARTH","RA_OF_ASC_NODE":"248.2945","LAUNCH_DATE":"2020-03-18","BSTAR":"0.00005924300000","SEMIMAJOR_AXIS":"6925.355","OBJECT_TYPE":"PAYLOAD","MEAN_MOTION":"15.06397972","ECCENTRICITY":"0.00015080","PERIAPSIS":"546.175","ARG_OF_PERICENTER":"84.5081","REF_FRAME":"TEME","PERIOD":"95.592","RCS_SIZE":"LARGE","OBJECT_NAME":"STARLINK-1266","MEAN_MOTION_DDOT":"0.0000000000000","OBJECT_ID":"2020-019Z","COUNTRY_CODE":"US","DECAY_DATE":null,"REV_AT_EPOCH":"12111","ELEMENT_SET_NO":"999","MEAN_ELEMENT_THEORY":"SGP4","EPHEMERIS_TYPE":"0","TLE_LINE2":"2 45383  53.0549 248.2945 0001508  84.5081 275.6080 15.06397972121118","MEAN_MOTION_DOT":"0.00000601","FILE":"3460905"},{"TLE_LINE1":"1 45384U 20019AA  22143.81662825 -.00001796  00000-0 -10173-3 0  9996","GP_ID":"204363868","NORAD_CAT_ID":"45384","INCLINATION":"53.0551","TIME_SYSTEM":"UTC","APOAPSIS":"548.343","SITE":"AFETR","EPOCH":"2022-05-23T19:35:56.680800","BSTAR":"-0.00010173000000","RA_OF_ASC_NODE":"248.0393","LAUNCH_DATE":"2020-03-18","CENTER_NAME":"EARTH","CLASSIFICATION_TYPE":"U","MEAN_ANOMALY":"294.0782","SEMIMAJOR_AXIS":"6925.366","MEAN_MOTION":"15.06394233","OBJECT_TYPE":"PAYLOAD","REF_FRAME":"TEME","ARG_OF_PERICENTER":"66.0375","PERIAPSIS":"546.119","ECCENTRICITY":"0.00016060","OBJECT_NAME":"STARLINK-1267","RCS_SIZE":"LARGE","PERIOD":"95.593","TLE_LINE2":"2 45384  53.0551 248.0393 0001606  66.0375 294.0782 15.06394233121129","FILE":"3460905","MEAN_MOTION_DOT":"-0.00001796","EPHEMERIS_TYPE":"0","MEAN_ELEMENT_THEORY":"SGP4","ELEMENT_SET_NO":"999","REV_AT_EPOCH":"12112","DECAY_DATE":null,"COUNTRY_CODE":"US","OBJECT_ID":"2020-019AA","MEAN_MOTION_DDOT":"0.0000000000000"},{"SEMIMAJOR_AXIS":"6925.369","CLASSIFICATION_TYPE":"U","MEAN_ANOMALY":"281.2237","CENTER_NAME":"EARTH","RA_OF_ASC_NODE":"248.6324","LAUNCH_DATE":"2020-03-18","BSTAR":"0.00009725000000","EPOCH":"2022-05-23T16:31:32.505888","SITE":"AFETR","APOAPSIS":"548.375","TIME_SYSTEM":"UTC","INCLINATION":"53.0547","NORAD_CAT_ID":"45386","TLE_LINE1":"1 45386U 20019AC  22143.68857067  .00001167  00000-0  97250-4 0  9999","GP_ID":"204363621","MEAN_MOTION_DDOT":"0.0000000000000","OBJECT_ID":"2020-019AC","DECAY_DATE":null,"COUNTRY_CODE":"US","REV_AT_EPOCH":"12110","ELEMENT_SET_NO":"999","EPHEMERIS_TYPE":"0","MEAN_ELEMENT_THEORY":"SGP4","TLE_LINE2":"2 45386  53.0547 248.6324 0001648  78.8937 281.2237 15.06393266121103","FILE":"3460905","MEAN_MOTION_DOT":"0.00001167","PERIOD":"95.593","OBJECT_NAME":"STARLINK-1272","RCS_SIZE":"LARGE","ECCENTRICITY":"0.00016480","PERIAPSIS":"546.093","ARG_OF_PERICENTER":"78.8937","REF_FRAME":"TEME","OBJECT_TYPE":"PAYLOAD","MEAN_MOTION":"15.06393266"},{"RCS_SIZE":"LARGE","OBJECT_NAME":"STARLINK-1274","PERIOD":"95.592","ELEMENT_SET_NO":"999","MEAN_ELEMENT_THEORY":"SGP4","EPHEMERIS_TYPE":"0","FILE":"3460905","TLE_LINE2":"2 45387  53.0549 248.8166 0001473  73.3422 286.7729 15.06394965121098","MEAN_MOTION_DOT":"-0.00000475","MEAN_MOTION_DDOT":"0.0000000000000","OBJECT_ID":"2020-019AD","COUNTRY_CODE":"US","DECAY_DATE":null,"REV_AT_EPOCH":"12109","MEAN_MOTION":"15.06394965","OBJECT_TYPE":"PAYLOAD","PERIAPSIS":"546.209","ARG_OF_PERICENTER":"73.3422","REF_FRAME":"TEME","ECCENTRICITY":"0.00014730","BSTAR":"-0.00001298900000","CLASSIFICATION_TYPE":"U","MEAN_ANOMALY":"286.7729","CENTER_NAME":"EARTH","RA_OF_ASC_NODE":"248.8166","LAUNCH_DATE":"2020-03-18","SEMIMAJOR_AXIS":"6925.364","TLE_LINE1":"1 45387U 20019AD  22143.64433686 -.00000475  00000-0 -12989-4 0  9992","GP_ID":"204362371","NORAD_CAT_ID":"45387","APOAPSIS":"548.249","TIME_SYSTEM":"UTC","INCLINATION":"53.0549","EPOCH":"2022-05-23T15:27:50.704704","SITE":"AFETR"},{"SEMIMAJOR_AXIS":"6925.355","LAUNCH_DATE":"2020-03-18","RA_OF_ASC_NODE":"268.9544","CENTER_NAME":"EARTH","CLASSIFICATION_TYPE":"U","MEAN_ANOMALY":"289.4514","BSTAR":"0.00005145100000","SITE":"AFETR","EPOCH":"2022-05-23T14:42:43.677792","INCLINATION":"53.0550","TIME_SYSTEM":"UTC","APOAPSIS":"548.223","NORAD_CAT_ID":"45388","GP_ID":"204362621","TLE_LINE1":"1 45388U 20019AE  22143.61300553  .00000485  00000-0  51451-4 0  9992","REV_AT_EPOCH":"12080","DECAY_DATE":null,"COUNTRY_CODE":"US","MEAN_MOTION_DDOT":"0.0000000000000","OBJECT_ID":"2020-019AE","MEAN_MOTION_DOT":"0.00000485","TLE_LINE2":"2 45388  53.0550 268.9544 0001449  70.6631 289.4514 15.06398010120804","FILE":"3460905","EPHEMERIS_TYPE":"0","MEAN_ELEMENT_THEORY":"SGP4","ELEMENT_SET_NO":"999","PERIOD":"95.592","OBJECT_NAME":"STARLINK-1280","RCS_SIZE":"LARGE","ECCENTRICITY":"0.00014490","REF_FRAME":"TEME","ARG_OF_PERICENTER":"70.6631","PERIAPSIS":"546.216","OBJECT_TYPE":"PAYLOAD","MEAN_MOTION":"15.06398010"},{"PERIOD":"95.593","OBJECT_NAME":"STARLINK-1283","RCS_SIZE":"LARGE","OBJECT_ID":"2020-019AF","MEAN_MOTION_DDOT":"0.0000000000000","COUNTRY_CODE":"US","DECAY_DATE":null,"REV_AT_EPOCH":"12109","ELEMENT_SET_NO":"999","EPHEMERIS_TYPE":"0","MEAN_ELEMENT_THEORY":"SGP4","TLE_LINE2":"2 45389  53.0581 249.0589 0001568  62.1054 298.0094 15.06388094121097","MEAN_MOTION_DOT":"-0.00000449","FILE":"3460386","OBJECT_TYPE":"PAYLOAD","MEAN_MOTION":"15.06388094","ECCENTRICITY":"0.00015680","PERIAPSIS":"546.164","ARG_OF_PERICENTER":"62.1054","REF_FRAME":"TEME","CLASSIFICATION_TYPE":"U","MEAN_ANOMALY":"298.0094","CENTER_NAME":"EARTH","LAUNCH_DATE":"2020-03-18","RA_OF_ASC_NODE":"249.0589","BSTAR":"-0.00001127000000","SEMIMAJOR_AXIS":"6925.385","NORAD_CAT_ID":"45389","TLE_LINE1":"1 45389U 20019AF  22143.59274390 -.00000449  00000-0 -11270-4 0  9996","GP_ID":"204327756","EPOCH":"2022-05-23T14:13:33.072960","SITE":"AFETR","APOAPSIS":"548.336","TIME_SYSTEM":"UTC","INCLINATION":"53.0581"},{"TLE_LINE1":"1 45390U 20019AG  22143.56693231 -.00000256  00000-0  16877-5 0  9998","GP_ID":"204341101","NORAD_CAT_ID":"45390","TIME_SYSTEM":"UTC","INCLINATION":"53.0526","APOAPSIS":"548.423","EPOCH":"2022-05-23T13:36:22.951584","SITE":"AFETR","BSTAR":"0.00000168770000","CENTER_NAME":"EARTH","RA_OF_ASC_NODE":"249.1648","LAUNCH_DATE":"2020-03-18","CLASSIFICATION_TYPE":"U","MEAN_ANOMALY":"308.5490","SEMIMAJOR_AXIS":"6925.364","MEAN_MOTION":"15.06395065","OBJECT_TYPE":"PAYLOAD","ARG_OF_PERICENTER":"51.5653","REF_FRAME":"TEME","PERIAPSIS":"546.035","ECCENTRICITY":"0.00017240","OBJECT_NAME":"STARLINK-1284","RCS_SIZE":"LARGE","PERIOD":"95.592","MEAN_ELEMENT_THEORY":"SGP4","EPHEMERIS_TYPE":"0","TLE_LINE2":"2 45390  53.0526 249.1648 0001724  51.5653 308.5490 15.06395065121088","FILE":"3460740","MEAN_MOTION_DOT":"-0.00000256","ELEMENT_SET_NO":"999","DECAY_DATE":null,"COUNTRY_CODE":"US","REV_AT_EPOCH":"12108","MEAN_MOTION_DDOT":"0.0000000000000","OBJECT_ID":"2020-019AG"}];
